start=new Date('2022-04-19T00:00:00.000Z').valueOf();
sats=[{"MEAN_MOTION_DOT":"0.00001372","TLE_LINE1":"1 47781U 21017BM  22108.73065684  .00001372  00000-0  11099-3 0  9996","OBJECT_TYPE":"PAYLOAD","EPOCH":"2022-04-18T17:32:08.750976","CENTER_NAME":"EARTH","DECAY_DATE":null,"MEAN_MOTION_DDOT":"0.0000000000000","MEAN_MOTION":"15.06407278","ELEMENT_SET_NO":"999","COUNTRY_CODE":"US","ARG_OF_PERICENTER":"54.5301","REV_AT_EPOCH":"6356","RA_OF_ASC_NODE":"110.5541","SITE":"AFETR","NORAD_CAT_ID":"47781","ECCENTRICITY":"0.00017270","CLASSIFICATION_TYPE":"U","TIME_SYSTEM":"UTC","SEMIMAJOR_AXIS":"6925.326","OBJECT_NAME":"STARLINK-2223","GP_ID":"201580390","EPHEMERIS_TYPE":"0","LAUNCH_DATE":"2021-03-04","TLE_LINE2":"2 47781  53.0525 110.5541 0001727  54.5301 305.5849 15.06407278 63565","RCS_SIZE":"LARGE","PERIAPSIS":"545.995","REF_FRAME":"TEME","PERIOD":"95.592","OBJECT_ID":"2021-017BM","MEAN_ELEMENT_THEORY":"SGP4","INCLINATION":"53.0525","APOAPSIS":"548.387","BSTAR":"0.00011099000000","MEAN_ANOMALY":"305.5849","FILE":"3407402"},{"FILE":"3407402","MEAN_ANOMALY":"314.7497","BSTAR":"0.00011134000000","APOAPSIS":"548.600","INCLINATION":"53.0535","MEAN_ELEMENT_THEORY":"SGP4","OBJECT_ID":"2021-018A","PERIOD":"95.593","REF_FRAME":"TEME","PERIAPSIS":"545.866","RCS_SIZE":"LARGE","TLE_LINE2":"2 47787  53.0535 150.1707 0001974  45.3653 314.7497 15.06393521 62439","LAUNCH_DATE":"2021-03-11","EPHEMERIS_TYPE":"0","GP_ID":"201580641","OBJECT_NAME":"STARLINK-2257","SEMIMAJOR_AXIS":"6925.368","TIME_SYSTEM":"UTC","CLASSIFICATION_TYPE":"U","ECCENTRICITY":"0.00019740","NORAD_CAT_ID":"47787","SITE":"AFETR","RA_OF_ASC_NODE":"150.1707","REV_AT_EPOCH":"6243","ARG_OF_PERICENTER":"45.3653","COUNTRY_CODE":"US","ELEMENT_SET_NO":"999","MEAN_MOTION":"15.06393521","MEAN_MOTION_DDOT":"0.0000000000000","DECAY_DATE":null,"CENTER_NAME":"EARTH","EPOCH":"2022-04-18T19:34:14.610432","OBJECT_TYPE":"PAYLOAD","TLE_LINE1":"1 47787U 21018A   22108.81544688  .00001377  00000-0  11134-3 0  9993","MEAN_MOTION_DOT":"0.00001377"},{"APOAPSIS":"548.493","BSTAR":"0.00014496000000","INCLINATION":"53.0568","MEAN_ANOMALY":"318.3189","FILE":"3407402","RCS_SIZE":"LARGE","TLE_LINE2":"2 47788  53.0568 125.4219 0001881  41.7943 318.3189 15.06407640 62793","PERIAPSIS":"545.887","REF_FRAME":"TEME","PERIOD":"95.592","OBJECT_ID":"2021-018B","MEAN_ELEMENT_THEORY":"SGP4","SITE":"AFETR","NORAD_CAT_ID":"47788","RA_OF_ASC_NODE":"125.4219","ECCENTRICITY":"0.00018810","OBJECT_NAME":"STARLINK-2314","GP_ID":"201579389","TIME_SYSTEM":"UTC","CLASSIFICATION_TYPE":"U","SEMIMAJOR_AXIS":"6925.325","EPHEMERIS_TYPE":"0","LAUNCH_DATE":"2021-03-11","TLE_LINE1":"1 47788U 21018B   22108.76060028  .00001879  00000-0  14496-3 0  9990","OBJECT_TYPE":"PAYLOAD","MEAN_MOTION_DOT":"0.00001879","DECAY_DATE":null,"EPOCH":"2022-04-18T18:15:15.864192","CENTER_NAME":"EARTH","MEAN_MOTION_DDOT":"0.0000000000000","MEAN_MOTION":"15.06407640","ARG_OF_PERICENTER":"41.7943","REV_AT_EPOCH":"6279","ELEMENT_SET_NO":"999","COUNTRY_CODE":"US"},{"TLE_LINE1":"1 47789U 21018C   22108.41181967  .00000069  00000-0  23565-4 0  9997","OBJECT_TYPE":"PAYLOAD","MEAN_MOTION_DOT":"0.00000069","DECAY_DATE":null,"CENTER_NAME":"EARTH","EPOCH":"2022-04-18T09:53:01.219488","MEAN_MOTION_DDOT":"0.0000000000000","MEAN_MOTION":"15.06404916","ARG_OF_PERICENTER":"51.2179","REV_AT_EPOCH":"6266","ELEMENT_SET_NO":"999","COUNTRY_CODE":"US","SITE":"AFETR","NORAD_CAT_ID":"47789","RA_OF_ASC_NODE":"131.9965","ECCENTRICITY":"0.00019350","OBJECT_NAME":"STARLINK-2315","GP_ID":"201546188","CLASSIFICATION_TYPE":"U","TIME_SYSTEM":"UTC","SEMIMAJOR_AXIS":"6925.333","EPHEMERIS_TYPE":"0","LAUNCH_DATE":"2021-03-11","RCS_SIZE":"LARGE","TLE_LINE2":"2 47789  53.0551 131.9965 0001935  51.2179 308.8982 15.06404916 62667","PERIAPSIS":"545.858","REF_FRAME":"TEME","PERIOD":"95.592","OBJECT_ID":"2021-018C","MEAN_ELEMENT_THEORY":"SGP4","APOAPSIS":"548.539","BSTAR":"0.00002356500000","INCLINATION":"53.0551","MEAN_ANOMALY":"308.8982","FILE":"3406909"},{"DECAY_DATE":null,"CENTER_NAME":"EARTH","EPOCH":"2022-04-18T07:41:39.897024","TLE_LINE1":"1 47790U 21018D   22108.32060066 -.00001149  00000-0 -58273-4 0  9991","OBJECT_TYPE":"PAYLOAD","MEAN_MOTION_DOT":"-0.00001149","ARG_OF_PERICENTER":"59.0028","REV_AT_EPOCH":"6279","ELEMENT_SET_NO":"999","COUNTRY_CODE":"US","MEAN_MOTION_DDOT":"0.0000000000000","MEAN_MOTION":"15.06400120","ECCENTRICITY":"0.00016260","SITE":"AFETR","NORAD_CAT_ID":"47790","RA_OF_ASC_NODE":"122.4039","EPHEMERIS_TYPE":"0","LAUNCH_DATE":"2021-03-11","OBJECT_NAME":"STARLINK-2319","GP_ID":"201544438","TIME_SYSTEM":"UTC","CLASSIFICATION_TYPE":"U","SEMIMAJOR_AXIS":"6925.348","PERIAPSIS":"546.087","REF_FRAME":"TEME","RCS_SIZE":"LARGE","TLE_LINE2":"2 47790  53.0552 122.4039 0001626  59.0028 301.1120 15.06400120 62790","MEAN_ELEMENT_THEORY":"SGP4","PERIOD":"95.592","OBJECT_ID":"2021-018D","APOAPSIS":"548.339","BSTAR":"-0.00005827300000","INCLINATION":"53.0552","FILE":"3406909","MEAN_ANOMALY":"301.1120"},{"OBJECT_ID":"2021-018E","PERIOD":"95.592","MEAN_ELEMENT_THEORY":"SGP4","RCS_SIZE":"LARGE","TLE_LINE2":"2 47791  53.0528 150.2238 0001774  52.1501 307.9648 15.06402158 62442","REF_FRAME":"TEME","PERIAPSIS":"545.978","MEAN_ANOMALY":"307.9648","FILE":"3407402","BSTAR":"0.00016777000000","APOAPSIS":"548.435","INCLINATION":"53.0528","MEAN_MOTION":"15.06402158","MEAN_MOTION_DDOT":"0.0000000000000","REV_AT_EPOCH":"6244","ARG_OF_PERICENTER":"52.1501","COUNTRY_CODE":"US","ELEMENT_SET_NO":"999","OBJECT_TYPE":"PAYLOAD","TLE_LINE1":"1 47791U 21018E   22108.80437265  .00002218  00000-0  16777-3 0  9992","MEAN_MOTION_DOT":"0.00002218","DECAY_DATE":null,"EPOCH":"2022-04-18T19:18:17.796960","CENTER_NAME":"EARTH","GP_ID":"201580141","OBJECT_NAME":"STARLINK-2322","SEMIMAJOR_AXIS":"6925.342","TIME_SYSTEM":"UTC","CLASSIFICATION_TYPE":"U","LAUNCH_DATE":"2021-03-11","EPHEMERIS_TYPE":"0","NORAD_CAT_ID":"47791","SITE":"AFETR","RA_OF_ASC_NODE":"150.2238","ECCENTRICITY":"0.00017740"},{"NORAD_CAT_ID":"47792","SITE":"AFETR","RA_OF_ASC_NODE":"130.4630","ECCENTRICITY":"0.00019550","GP_ID":"201578889","OBJECT_NAME":"STARLINK-2334","SEMIMAJOR_AXIS":"6925.359","TIME_SYSTEM":"UTC","CLASSIFICATION_TYPE":"U","LAUNCH_DATE":"2021-03-11","EPHEMERIS_TYPE":"0","OBJECT_TYPE":"PAYLOAD","TLE_LINE1":"1 47792U 21018F   22108.75093513 -.00000270  00000-0  79088-6 0  9995","MEAN_MOTION_DOT":"-0.00000270","DECAY_DATE":null,"CENTER_NAME":"EARTH","EPOCH":"2022-04-18T18:01:20.795232","MEAN_MOTION":"15.06396547","MEAN_MOTION_DDOT":"0.0000000000000","REV_AT_EPOCH":"6271","ARG_OF_PERICENTER":"40.6697","COUNTRY_CODE":"US","ELEMENT_SET_NO":"999","BSTAR":"0.00000079088000","APOAPSIS":"548.578","INCLINATION":"53.0541","MEAN_ANOMALY":"319.4437","FILE":"3407402","RCS_SIZE":"LARGE","TLE_LINE2":"2 47792  53.0541 130.4630 0001955  40.6697 319.4437 15.06396547 62711","REF_FRAME":"TEME","PERIAPSIS":"545.870","OBJECT_ID":"2021-018F","PERIOD":"95.592","MEAN_ELEMENT_THEORY":"SGP4"},{"PERIAPSIS":"545.863","REF_FRAME":"TEME","RCS_SIZE":"LARGE","TLE_LINE2":"2 47793  53.0554 130.4034 0001968  47.7502 312.3654 15.06395968 62709","MEAN_ELEMENT_THEORY":"SGP4","PERIOD":"95.592","OBJECT_ID":"2021-018G","APOAPSIS":"548.589","BSTAR":"-0.00001502000000","INCLINATION":"53.0554","FILE":"3407402","MEAN_ANOMALY":"312.3654","DECAY_DATE":null,"CENTER_NAME":"EARTH","EPOCH":"2022-04-18T18:22:36.295104","TLE_LINE1":"1 47793U 21018G   22108.76569786 -.00000505  00000-0 -15020-4 0  9993","OBJECT_TYPE":"PAYLOAD","MEAN_MOTION_DOT":"-0.00000505","ARG_OF_PERICENTER":"47.7502","REV_AT_EPOCH":"6270","ELEMENT_SET_NO":"999","COUNTRY_CODE":"US","MEAN_MOTION_DDOT":"0.0000000000000","MEAN_MOTION":"15.06395968","ECCENTRICITY":"0.00019680","SITE":"AFETR","NORAD_CAT_ID":"47793","RA_OF_ASC_NODE":"130.4034","EPHEMERIS_TYPE":"0","LAUNCH_DATE":"2021-03-11","OBJECT_NAME":"STARLINK-2338","GP_ID":"201579139","TIME_SYSTEM":"UTC","CLASSIFICATION_TYPE":"U","SEMIMAJOR_AXIS":"6925.361"},{"INCLINATION":"53.0537","BSTAR":"0.00025073000000","APOAPSIS":"548.689","MEAN_ANOMALY":"319.8395","FILE":"3407402","TLE_LINE2":"2 47794  53.0537 130.3879 0002105  40.2749 319.8395 15.06394396 62711","RCS_SIZE":"LARGE","REF_FRAME":"TEME","PERIAPSIS":"545.773","OBJECT_ID":"2021-018H","PERIOD":"95.592","MEAN_ELEMENT_THEORY":"SGP4","RA_OF_ASC_NODE":"130.3879","NORAD_CAT_ID":"47794","SITE":"AFETR","ECCENTRICITY":"0.00021050","SEMIMAJOR_AXIS":"6925.366","TIME_SYSTEM":"UTC","CLASSIFICATION_TYPE":"U","GP_ID":"201580391","OBJECT_NAME":"STARLINK-2341","LAUNCH_DATE":"2021-03-11","EPHEMERIS_TYPE":"0","MEAN_MOTION_DOT":"0.00003454","OBJECT_TYPE":"PAYLOAD","TLE_LINE1":"1 47794U 21018H   22108.76936757  .00003454  00000-0  25073-3 0  9992","EPOCH":"2022-04-18T18:27:53.358048","CENTER_NAME":"EARTH","DECAY_DATE":null,"MEAN_MOTION":"15.06394396","MEAN_MOTION_DDOT":"0.0000000000000","COUNTRY_CODE":"US","ELEMENT_SET_NO":"999","REV_AT_EPOCH":"6271","ARG_OF_PERICENTER":"40.2749"},{"OBJECT_NAME":"STARLINK-2347","GP_ID":"201580642","CLASSIFICATION_TYPE":"U","TIME_SYSTEM":"UTC","SEMIMAJOR_AXIS":"6925.353","EPHEMERIS_TYPE":"0","LAUNCH_DATE":"2021-03-11","SITE":"AFETR","NORAD_CAT_ID":"47795","RA_OF_ASC_NODE":"130.4353","ECCENTRICITY":"0.00017650","MEAN_MOTION_DDOT":"0.0000000000000","MEAN_MOTION":"15.06398442","ARG_OF_PERICENTER":"57.7553","REV_AT_EPOCH":"6276","ELEMENT_SET_NO":"999","COUNTRY_CODE":"US","TLE_LINE1":"1 47795U 21018J   22108.75831719  .00004476  00000-0  31924-3 0  9991","OBJECT_TYPE":"PAYLOAD","MEAN_MOTION_DOT":"0.00004476","DECAY_DATE":null,"CENTER_NAME":"EARTH","EPOCH":"2022-04-18T18:11:58.605216","MEAN_ANOMALY":"302.3607","FILE":"3407402","APOAPSIS":"548.441","BSTAR":"0.00031924000000","INCLINATION":"53.0526","PERIOD":"95.592","OBJECT_ID":"2021-018J","MEAN_ELEMENT_THEORY":"SGP4","RCS_SIZE":"LARGE","TLE_LINE2":"2 47795  53.0526 130.4353 0001765  57.7553 302.3607 15.06398442 62769","PERIAPSIS":"545.996","REF_FRAME":"TEME"}];
